TIGER-6                 
1 58272U 23174S   26068.73366727  .00113437  00000+0  98002-3 0  9994
2 58272  97.3904 161.9275 0003121 155.9023 204.2385 15.68857868130641
STARLINK-11426 [DTC]    
1 62058U 24217B   26068.54021911  .00167698  00000+0  13576-2 0  9992
2 62058  53.1575  71.7316 0001491  48.9325 311.1821 15.69775184 75091
